IONOSFERA-M 2           
1 61736U 24199B   26193.61564575  .00000026  00000+0  31038-4 0  9994
2 61736  98.7138  66.4259 0000400 115.9076 244.2143 14.22762156134448
PRSC-EO1                
1 62725U 25012A   26193.64154427  .00003733  00000+0  18895-3 0  9995
2 62725  97.4222 265.6025 0006546 153.7684 206.3883 15.17601077 82051
BIOMASS                 
1 63772U 25090A   26193.53637527  .00000525  00000+0  10097-3 0  9991
2 63772  98.0753  20.4797 0001406  95.8539 264.2826 14.67535769 64405
GOSAT-GW (IBUKI GW)     
1 64694U 25141A   26193.62183406  .00000384  00000+0  76204-4 0  9990
2 64694  98.0565 130.5257 0001429  85.0423 275.0945 14.67555209 55573
IONOSFERA-M 3           
1 64876U 25155A   26193.58573069  .00000007  00000+0  22755-4 0  9994
2 64876  98.6038 154.8533 0002217 116.4575 243.6830 14.21490565 50016
IONOSFERA-M 4           
1 64877U 25155B   26193.62052865  .00000005  00000+0  21859-4 0  9998
2 64877  98.6037 154.8044 0001776 102.1718 257.9659 14.21492941 50010
MICROCARB               
1 64899U 25156A   26192.81403436  .00000276  00000+0  50799-4 0  9992
2 64899  98.0075 269.5636 0017351 181.4107 178.7055 14.72882876 51599
CO3D 3                  
1 64900U 25156B   26193.52938149  .00002335  00000+0  11086-3 0  9991
2 64900  97.4339 271.8580 0001812 100.7259 259.4180 15.20223817 53382
CO3D 4                  
1 64901U 25156C   26193.52956263  .00000715  00000+0  36153-4 0  9992
2 64901  97.4335 271.8582 0001465 158.1909 201.9389 15.20193596 53387
CO3D 2                  
1 64902U 25156D   26193.56203475  .00002555  00000+0  12107-3 0  9993
2 64902  97.4337 271.7889 0001284  89.6594 270.4788 15.20208373 53380
CO3D 1                  
1 64903U 25156E   26193.56218302  .00002552  00000+0  12096-3 0  9993
2 64903  97.4337 271.7891 0001307 101.7402 258.3980 15.20211966 53385
PRSC-S1                 
1 65055U 25164A   26193.32277488  .00002173  00000+0  15588-3 0  9993
2 65055  41.1293 146.2272 0006258 179.2264 180.8560 15.06620827 52225
SENTINEL-6B             
1 66514U 25264A   26192.83590267 -.00000071  00000+0 -41261-4 0  9998
2 66514  66.0413  83.9841 0007873 268.7579  91.2534 12.80930071 30329
CAS500-3                
1 66655U 25274F   26193.22474867  .00000667  00000+0  77801-4 0  9994
2 66655  97.7438 120.7064 0006423  46.1254 314.0493 14.88379554 33874
CSG-3                   
1 67304U 26001A   26193.51549744  .00000143  00000+0  24473-4 0  9990
2 67304  97.8893  16.7511 0001506  93.2238 266.9147 14.82150900 28214
PRSC-E03                
1 68835U 26092A   26193.63684791  .00001397  00000+0  99245-4 0  9996
2 68835  38.0019 299.5958 0004712 235.3120 124.7198 15.06801800 11799
CAS500-2                
1 69013U 26100AK  26192.69548464  .00003412  00000+0  15743-3 0  9996
2 69013  97.3877  90.0874 0008004 306.8039  53.2461 15.20876867 10531
