OBJECT_NAME,OBJECT_ID,EPOCH,MEAN_MOTION,ECCENTRICITY,INCLINATION,RA_OF_ASC_NODE,ARG_OF_PERICENTER,MEAN_ANOMALY,EPHEMERIS_TYPE,CLASSIFICATION_TYPE,NORAD_CAT_ID,ELEMENT_SET_NO,REV_AT_EPOCH,BSTAR,MEAN_MOTION_DOT,MEAN_MOTION_DDOT
IONOSFERA-M 2,2024-199B,2026-07-12T14:46:31.792800,14.22762156,.00004005,98.7138,66.4259,115.9076,244.2143,0,U,61736,999,13444,.31038022E-4,.26E-6,0
PRSC-EO1,2025-012A,2026-07-12T15:23:49.424928,15.17601077,.00065466,97.4222,265.6025,153.7684,206.3883,0,U,62725,999,8205,.18895208E-3,.3733E-4,0
BIOMASS,2025-090A,2026-07-12T12:52:22.823328,14.67535769,.00014066,98.0753,20.4797,95.8539,264.2826,0,U,63772,999,6440,.10096591E-3,.525E-5,0
GOSAT-GW (IBUKI GW),2025-141A,2026-07-12T14:55:26.462784,14.67555209,.00014294,98.0565,130.5257,85.0423,275.0945,0,U,64694,999,5557,.7620424E-4,.384E-5,0
IONOSFERA-M 3,2025-155A,2026-07-12T14:03:27.131616,14.21490565,.00022175,98.6038,154.8533,116.4575,243.6830,0,U,64876,999,5001,.22755042E-4,.7E-7,0
IONOSFERA-M 4,2025-155B,2026-07-12T14:53:33.675360,14.21492941,.00017766,98.6037,154.8044,102.1718,257.9659,0,U,64877,999,5001,.21859166E-4,.5E-7,0
MICROCARB,2025-156A,2026-07-11T19:32:12.568704,14.72882876,.00173514,98.0075,269.5636,181.4107,178.7055,0,U,64899,999,5159,.50798874E-4,.276E-5,0
CO3D 3,2025-156B,2026-07-12T12:42:18.560736,15.20223817,.00018127,97.4339,271.8580,100.7259,259.4180,0,U,64900,999,5338,.11086423E-3,.2335E-4,0
CO3D 4,2025-156C,2026-07-12T12:42:34.211232,15.20193596,.00014651,97.4335,271.8582,158.1909,201.9389,0,U,64901,999,5338,.36153121E-4,.715E-5,0
CO3D 2,2025-156D,2026-07-12T13:29:19.802400,15.20208373,.00012844,97.4337,271.7889,89.6594,270.4788,0,U,64902,999,5338,.12106596E-3,.2555E-4,0
CO3D 1,2025-156E,2026-07-12T13:29:32.612928,15.20211966,.00013078,97.4337,271.7891,101.7402,258.3980,0,U,64903,999,5338,.12095543E-3,.2552E-4,0
PRSC-S1,2025-164A,2026-07-12T07:44:47.749632,15.06620827,.00062582,41.1293,146.2272,179.2264,180.8560,0,U,65055,999,5222,.15587631E-3,.2173E-4,0
SENTINEL-6B,2025-264A,2026-07-11T20:03:41.990688,12.80930071,.00078732,66.0413,83.9841,268.7579,91.2534,0,U,66514,999,3032,-.41261051E-4,-.71E-6,0
CAS500-3,2025-274F,2026-07-12T05:23:38.285088,14.88379554,.0006423,97.7438,120.7064,46.1254,314.0493,0,U,66655,999,3387,.77801E-4,.667E-5,0
CSG-3,2026-001A,2026-07-12T12:22:18.978816,14.82150900,.00015068,97.8893,16.7511,93.2238,266.9147,0,U,67304,999,2821,.24473033E-4,.143E-5,0
PRSC-E03,2026-092A,2026-07-12T15:17:03.659424,15.06801800,.00047129,38.0019,299.5958,235.3120,124.7198,0,U,68835,999,1179,.99244761E-4,.1397E-4,0
CAS500-2,2026-100AK,2026-07-11T16:41:29.872896,15.20876867,.00080047,97.3877,90.0874,306.8039,53.2461,0,U,69013,999,1053,.15743373E-3,.3412E-4,0
